{"type":"FeatureCollection","features":[{"type":"Feature","geometry":{"type":"Point","coordinates":[139.641969,35.901803]},"properties":{"name":"天沼町二丁目","ku":"さいたま市大宮区","area":676895.0}},{"type":"Feature","geometry":{"type":"Point","coordinates":[139.61764,35.900798]},"properties":{"name":"桜木町四丁目","ku":"さいたま市大宮区","area":615695.0}},{"type":"Feature","geometry":{"type":"Point","coordinates":[139.623882,35.906846]},"properties":{"name":"錦町","ku":"さいたま市大宮区","area":493770.0}},{"type":"Feature","geometry":{"type":"Point","coordinates":[139.610337,35.902586]},"properties":{"name":"上小町","ku":"さいたま市大宮区","area":477054.0}},{"type":"Feature","geometry":{"type":"Point","coordinates":[139.638815,35.892535]},"properties":{"name":"北袋町一丁目","ku":"さいたま市大宮区","area":395705.0}},{"type":"Feature","geometry":{"type":"Point","coordinates":[139.644325,35.894234]},"properties":{"name":"北袋町二丁目","ku":"さいたま市大宮区","area":328355.0}},{"type":"Feature","geometry":{"type":"Point","coordinates":[139.634865,35.896472]},"properties":{"name":"吉敷町四丁目","ku":"さいたま市大宮区","area":322135.0}},{"type":"Feature","geometry":{"type":"Point","coordinates":[139.614096,35.913172]},"properties":{"name":"大成町二丁目","ku":"さいたま市大宮区","area":282873.0}},{"type":"Feature","geometry":{"type":"Point","coordinates":[139.614631,35.909248]},"properties":{"name":"大成町一丁目","ku":"さいたま市大宮区","area":281748.0}},{"type":"Feature","geometry":{"type":"Point","coordinates":[139.632148,35.892656]},"properties":{"name":"新都心","ku":"さいたま市中央区","area":267913.0}},{"type":"Feature","geometry":{"type":"Point","coordinates":[139.621431,35.903943]},"properties":{"name":"桜木町一丁目","ku":"さいたま市大宮区","area":197585.0}},{"type":"Feature","geometry":{"type":"Point","coordinates":[139.632415,35.91362]},"properties":{"name":"高鼻町二丁目","ku":"さいたま市大宮区","area":167761.0}},{"type":"Feature","geometry":{"type":"Point","coordinates":[139.619532,35.907576]},"properties":{"name":"桜木町二丁目","ku":"さいたま市大宮区","area":156847.0}},{"type":"Feature","geometry":{"type":"Point","coordinates":[139.629395,35.913089]},"properties":{"name":"高鼻町一丁目","ku":"さいたま市大宮区","area":155124.0}},{"type":"Feature","geometry":{"type":"Point","coordinates":[139.632396,35.88632]},"properties":{"name":"下落合三丁目","ku":"さいたま市中央区","area":151432.0}},{"type":"Feature","geometry":{"type":"Point","coordinates":[139.622924,35.91545]},"properties":{"name":"土手町一丁目","ku":"さいたま市大宮区","area":150945.0}},{"type":"Feature","geometry":{"type":"Point","coordinates":[139.627194,35.887099]},"properties":{"name":"下落合四丁目","ku":"さいたま市中央区","area":150077.0}},{"type":"Feature","geometry":{"type":"Point","coordinates":[139.637054,35.884273]},"properties":{"name":"大字下落合","ku":"さいたま市中央区","area":149893.0}},{"type":"Feature","geometry":{"type":"Point","coordinates":[139.620933,35.889349]},"properties":{"name":"本町東五丁目","ku":"さいたま市中央区","area":141969.0}},{"type":"Feature","geometry":{"type":"Point","coordinates":[139.628036,35.884794]},"properties":{"name":"下落合五丁目","ku":"さいたま市中央区","area":139627.0}},{"type":"Feature","geometry":{"type":"Point","coordinates":[139.63443,35.902151]},"properties":{"name":"浅間町二丁目","ku":"さいたま市大宮区","area":132795.0}},{"type":"Feature","geometry":{"type":"Point","coordinates":[139.627413,35.890408]},"properties":{"name":"上落合二丁目","ku":"さいたま市中央区","area":131821.0}},{"type":"Feature","geometry":{"type":"Point","coordinates":[139.634296,35.88265]},"properties":{"name":"下落合二丁目","ku":"さいたま市中央区","area":125877.0}},{"type":"Feature","geometry":{"type":"Point","coordinates":[139.621864,35.886453]},"properties":{"name":"本町東四丁目","ku":"さいたま市中央区","area":123969.0}},{"type":"Feature","geometry":{"type":"Point","coordinates":[139.622103,35.899367]},"properties":{"name":"上落合八丁目","ku":"さいたま市中央区","area":122912.0}},{"type":"Feature","geometry":{"type":"Point","coordinates":[139.630592,35.890437]},"properties":{"name":"上落合一丁目","ku":"さいたま市中央区","area":122167.0}},{"type":"Feature","geometry":{"type":"Point","coordinates":[139.627673,35.895865]},"properties":{"name":"上落合五丁目","ku":"さいたま市中央区","area":121660.0}},{"type":"Feature","geometry":{"type":"Point","coordinates":[139.629263,35.88274]},"properties":{"name":"下落合六丁目","ku":"さいたま市中央区","area":116747.0}},{"type":"Feature","geometry":{"type":"Point","coordinates":[139.63249,35.909364]},"properties":{"name":"東町二丁目","ku":"さいたま市大宮区","area":112917.0}},{"type":"Feature","geometry":{"type":"Point","coordinates":[139.634008,35.900106]},"properties":{"name":"吉敷町三丁目","ku":"さいたま市大宮区","area":111931.0}},{"type":"Feature","geometry":{"type":"Point","coordinates":[139.618705,35.91331]},"properties":{"name":"桜木町三丁目","ku":"さいたま市大宮区","area":108881.0}},{"type":"Feature","geometry":{"type":"Point","coordinates":[139.624541,35.889909]},"properties":{"name":"上落合三丁目","ku":"さいたま市中央区","area":108528.0}},{"type":"Feature","geometry":{"type":"Point","coordinates":[139.617318,35.892627]},"properties":{"name":"本町東六丁目","ku":"さいたま市中央区","area":108257.0}},{"type":"Feature","geometry":{"type":"Point","coordinates":[139.633492,35.906551]},"properties":{"name":"東町一丁目","ku":"さいたま市大宮区","area":107685.0}},{"type":"Feature","geometry":{"type":"Point","coordinates":[139.625606,35.916577]},"properties":{"name":"土手町三丁目","ku":"さいたま市大宮区","area":106743.0}},{"type":"Feature","geometry":{"type":"Point","coordinates":[139.620503,35.892583]},"properties":{"name":"本町東七丁目","ku":"さいたま市中央区","area":105912.0}},{"type":"Feature","geometry":{"type":"Point","coordinates":[139.624462,35.894988]},"properties":{"name":"上落合六丁目","ku":"さいたま市中央区","area":105164.0}},{"type":"Feature","geometry":{"type":"Point","coordinates":[139.633441,35.90435]},"properties":{"name":"浅間町一丁目","ku":"さいたま市大宮区","area":95737.0}},{"type":"Feature","geometry":{"type":"Point","coordinates":[139.629567,35.907618]},"properties":{"name":"大門町三丁目","ku":"さいたま市大宮区","area":94882.0}},{"type":"Feature","geometry":{"type":"Point","coordinates":[139.625049,35.893025]},"properties":{"name":"上落合四丁目","ku":"さいたま市中央区","area":94148.0}},{"type":"Feature","geometry":{"type":"Point","coordinates":[139.627183,35.918598]},"properties":{"name":"高鼻町三丁目","ku":"さいたま市大宮区","area":92515.0}},{"type":"Feature","geometry":{"type":"Point","coordinates":[139.627068,35.911751]},"properties":{"name":"宮町三丁目","ku":"さいたま市大宮区","area":88717.0}},{"type":"Feature","geometry":{"type":"Point","coordinates":[139.623837,35.897001]},"properties":{"name":"上落合七丁目","ku":"さいたま市中央区","area":87571.0}},{"type":"Feature","geometry":{"type":"Point","coordinates":[139.623785,35.900697]},"properties":{"name":"上落合九丁目","ku":"さいたま市中央区","area":87392.0}},{"type":"Feature","geometry":{"type":"Point","coordinates":[139.62937,35.901758]},"properties":{"name":"吉敷町一丁目","ku":"さいたま市大宮区","area":78570.0}},{"type":"Feature","geometry":{"type":"Point","coordinates":[139.62479,35.91121]},"properties":{"name":"宮町四丁目","ku":"さいたま市大宮区","area":63547.0}},{"type":"Feature","geometry":{"type":"Point","coordinates":[139.627511,35.90946]},"properties":{"name":"宮町二丁目","ku":"さいたま市大宮区","area":51693.0}},{"type":"Feature","geometry":{"type":"Point","coordinates":[139.626607,35.913925]},"properties":{"name":"土手町二丁目","ku":"さいたま市大宮区","area":48721.0}},{"type":"Feature","geometry":{"type":"Point","coordinates":[139.630234,35.899951]},"properties":{"name":"吉敷町二丁目","ku":"さいたま市大宮区","area":47038.0}},{"type":"Feature","geometry":{"type":"Point","coordinates":[139.630008,35.903906]},"properties":{"name":"下町三丁目","ku":"さいたま市大宮区","area":44714.0}},{"type":"Feature","geometry":{"type":"Point","coordinates":[139.62532,35.908511]},"properties":{"name":"宮町一丁目","ku":"さいたま市大宮区","area":40060.0}},{"type":"Feature","geometry":{"type":"Point","coordinates":[139.623452,35.911289]},"properties":{"name":"宮町五丁目","ku":"さいたま市大宮区","area":38559.0}},{"type":"Feature","geometry":{"type":"Point","coordinates":[139.625888,35.906618]},"properties":{"name":"大門町一丁目","ku":"さいたま市大宮区","area":34768.0}},{"type":"Feature","geometry":{"type":"Point","coordinates":[139.642569,35.901391]},"properties":{"name":"大原七丁目","ku":"さいたま市大宮区","area":32562.0}},{"type":"Feature","geometry":{"type":"Point","coordinates":[139.626306,35.904871]},"properties":{"name":"仲町一丁目","ku":"さいたま市大宮区","area":32445.0}},{"type":"Feature","geometry":{"type":"Point","coordinates":[139.629735,35.905397]},"properties":{"name":"仲町三丁目","ku":"さいたま市大宮区","area":30409.0}},{"type":"Feature","geometry":{"type":"Point","coordinates":[139.627037,35.903118]},"properties":{"name":"下町一丁目","ku":"さいたま市大宮区","area":28257.0}},{"type":"Feature","geometry":{"type":"Point","coordinates":[139.627383,35.907276]},"properties":{"name":"大門町二丁目","ku":"さいたま市大宮区","area":28005.0}},{"type":"Feature","geometry":{"type":"Point","coordinates":[139.627801,35.905347]},"properties":{"name":"仲町二丁目","ku":"さいたま市大宮区","area":25950.0}},{"type":"Feature","geometry":{"type":"Point","coordinates":[139.628353,35.903453]},"properties":{"name":"下町二丁目","ku":"さいたま市大宮区","area":23387.0}},{"type":"Feature","geometry":{"type":"Point","coordinates":[139.641662,35.898661]},"properties":{"name":"大原六丁目","ku":"さいたま市大宮区","area":20722.0}},{"type":"Feature","geometry":{"type":"Point","coordinates":[139.633622,35.893467]},"properties":{"name":"大字上落合","ku":"さいたま市中央区","area":15459.0}}]}