{"type":"FeatureCollection","features":[{"type":"Feature","geometry":{"type":"Polygon","coordinates":[[[139.604871,35.942006],[139.605134,35.941528],[139.605721,35.93999],[139.605941,35.939389],[139.605953,35.939356],[139.606063,35.939063],[139.60608,35.939002],[139.606163,35.938703],[139.606528,35.937732],[139.60698,35.936264],[139.606984,35.936248],[139.607086,35.935906],[139.606295,35.935854],[139.606276,35.936203],[139.605408,35.936169],[139.604448,35.936078],[139.603471,35.935955],[139.602715,35.93582],[139.601218,35.935442],[139.60367,35.930954],[139.603976,35.93044],[139.605102,35.928255],[139.605187,35.927998],[139.605225,35.927751],[139.60525,35.927464],[139.605137,35.924494],[139.605096,35.923809],[139.608339,35.923847],[139.60843,35.92214],[139.61175,35.922189],[139.611523,35.921457],[139.611485,35.920405],[139.612096,35.920435],[139.613305,35.920631],[139.613974,35.920844],[139.61471,35.921065],[139.614664,35.919766],[139.614478,35.918654],[139.614481,35.917686],[139.614523,35.916508],[139.614633,35.913821],[139.61467,35.912125],[139.614794,35.911345],[139.610316,35.910614],[139.610829,35.909482],[139.611675,35.908112],[139.61323,35.906375],[139.613311,35.906406],[139.613868,35.905674],[139.613912,35.905599],[139.613942,35.905541],[139.614088,35.905299],[139.615087,35.903918],[139.615914,35.903381],[139.616438,35.902687],[139.616974,35.901957],[139.617352,35.901138],[139.617588,35.90059],[139.618248,35.900818],[139.618637,35.899378],[139.619206,35.897217],[139.619257,35.897067],[139.615849,35.895745],[139.615244,35.895442],[139.614553,35.895031],[139.613291,35.894264],[139.613076,35.894029],[139.612802,35.893689],[139.611707,35.893361],[139.611649,35.893542],[139.610292,35.893084],[139.610049,35.893564],[139.609877,35.893873],[139.609681,35.894127],[139.609344,35.894518],[139.608984,35.894927],[139.608447,35.8949],[139.60834,35.894895],[139.607095,35.895776],[139.605395,35.8971],[139.603337,35.898569],[139.602358,35.899338],[139.601609,35.900049],[139.601119,35.900609],[139.59907,35.903708],[139.599012,35.903816],[139.599074,35.904082],[139.599165,35.904483],[139.599244,35.904814],[139.599386,35.905411],[139.599414,35.905494],[139.599561,35.906145],[139.599787,35.907145],[139.599934,35.907767],[139.59994,35.907873],[139.599965,35.908252],[139.599977,35.908445],[139.599985,35.90849],[139.600015,35.908954],[139.60003,35.908966],[139.600889,35.908931],[139.600949,35.909813],[139.600931,35.909921],[139.600939,35.910171],[139.600996,35.910879],[139.601007,35.911131],[139.600999,35.911309],[139.600998,35.911387],[139.601004,35.911522],[139.600991,35.911593],[139.600987,35.911866],[139.600988,35.911898],[139.600989,35.911936],[139.600999,35.912099],[139.601002,35.912165],[139.601017,35.912422],[139.601038,35.912762],[139.601041,35.912846],[139.601055,35.913111],[139.601057,35.913241],[139.601056,35.913383],[139.601057,35.913609],[139.60106,35.913659],[139.601063,35.913727],[139.601065,35.91387],[139.601069,35.913919],[139.600984,35.913942],[139.600295,35.913957],[139.600289,35.914133],[139.600296,35.914383],[139.600115,35.914335],[139.599777,35.914403],[139.599486,35.914488],[139.599207,35.914591],[139.598967,35.91468],[139.59857,35.914828],[139.598331,35.914894],[139.598167,35.914928],[139.598148,35.915037],[139.597706,35.915124],[139.597232,35.915344],[139.597191,35.915665],[139.597076,35.916428],[139.596945,35.917305],[139.596842,35.917995],[139.596761,35.918598],[139.597492,35.918655],[139.597836,35.918667],[139.597851,35.918537],[139.60045,35.918578],[139.600728,35.918721],[139.601484,35.918917],[139.60513,35.918487],[139.605242,35.921503],[139.604864,35.921519],[139.603334,35.921586],[139.602244,35.921556],[139.599782,35.921497],[139.597706,35.921439],[139.596651,35.921412],[139.597097,35.923189],[139.597155,35.923415],[139.597317,35.924043],[139.59733,35.924098],[139.597568,35.925052],[139.598165,35.925714],[139.598314,35.925911],[139.598588,35.926383],[139.598935,35.927084],[139.599226,35.927786],[139.59932,35.928156],[139.599338,35.928507],[139.599266,35.928771],[139.5992,35.929011],[139.59918,35.929164],[139.59917,35.929364],[139.599179,35.929508],[139.599302,35.929927],[139.599468,35.930403],[139.599576,35.930881],[139.600105,35.930934],[139.599801,35.932322],[139.599569,35.933273],[139.599418,35.933818],[139.599081,35.934832],[139.59905,35.934906],[139.598991,35.935077],[139.600038,35.936358],[139.604838,35.941968],[139.604871,35.942006]]]},"properties":{"name":"高度地区（15ｍ地区）","hmax":15.0,"notice":"さいたま市告示第７５３号","date":"2025/04/25"}},{"type":"Feature","geometry":{"type":"Polygon","coordinates":[[[139.639086,35.914924],[139.639155,35.914792],[139.639299,35.914549],[139.639354,35.914413],[139.639414,35.914314],[139.639471,35.914242],[139.639543,35.914116],[139.639586,35.914039],[139.639644,35.913966],[139.63995,35.913401],[139.640181,35.91296],[139.640332,35.912649],[139.640409,35.912559],[139.640465,35.912498],[139.640725,35.912254],[139.641053,35.911914],[139.641278,35.911674],[139.641467,35.911504],[139.64171,35.911324],[139.64229,35.910964],[139.642446,35.910867],[139.642584,35.910824],[139.642666,35.91083],[139.642724,35.910854],[139.642869,35.91093],[139.643041,35.911015],[139.643169,35.911067],[139.643242,35.911092],[139.643314,35.911096],[139.643393,35.91108],[139.643447,35.911054],[139.643484,35.911027],[139.643547,35.910938],[139.643713,35.91071],[139.643795,35.910594],[139.643861,35.91047],[139.643934,35.910323],[139.643984,35.910181],[139.644076,35.909681],[139.644149,35.90948],[139.644373,35.908994],[139.644446,35.908705],[139.644438,35.908655],[139.644417,35.90862],[139.644384,35.908586],[139.644331,35.908556],[139.643964,35.908481],[139.643825,35.908438],[139.643565,35.90829],[139.643472,35.908215],[139.643384,35.908132],[139.643238,35.907989],[139.643141,35.90789],[139.643124,35.90782],[139.64314,35.907741],[139.643197,35.907648],[139.643252,35.90758],[139.643323,35.907526],[139.643425,35.907471],[139.643577,35.90741],[139.643716,35.907357],[139.643797,35.907315],[139.643834,35.907266],[139.643841,35.907224],[139.643839,35.907191],[139.643804,35.907096],[139.643758,35.906946],[139.643737,35.906793],[139.643707,35.90655],[139.643513,35.905669],[139.643496,35.905555],[139.643505,35.905463],[139.643535,35.905388],[139.643557,35.905344],[139.643612,35.905276],[139.643686,35.905214],[139.643771,35.90516],[139.643911,35.905083],[139.643974,35.905035],[139.644018,35.904984],[139.644054,35.904925],[139.644074,35.904854],[139.644107,35.904629],[139.644107,35.904556],[139.644123,35.9044],[139.644122,35.904263],[139.64411,35.90416],[139.64403,35.903793],[139.644027,35.903729],[139.644048,35.903662],[139.644091,35.903594],[139.644137,35.903548],[139.644254,35.903463],[139.644375,35.903369],[139.64448,35.903272],[139.644556,35.90317],[139.644625,35.903047],[139.64468,35.902907],[139.644756,35.902496],[139.644799,35.902366],[139.64486,35.902271],[139.644973,35.902151],[139.645108,35.902062],[139.645135,35.902037],[139.645267,35.901943],[139.645319,35.901888],[139.645351,35.901822],[139.645362,35.901752],[139.645354,35.901674],[139.645319,35.901548],[139.645274,35.901438],[139.645209,35.901329],[139.64508,35.901203],[139.644876,35.901064],[139.644831,35.90105],[139.64454,35.90103],[139.644313,35.901015],[139.644243,35.900995],[139.644175,35.900948],[139.644133,35.900892],[139.644078,35.900708],[139.644056,35.900575],[139.643982,35.900248],[139.643976,35.900141],[139.643988,35.900055],[139.644015,35.899959],[139.644117,35.899737],[139.644134,35.899681],[139.644113,35.89954],[139.6441,35.899508],[139.644066,35.89947],[139.64402,35.899446],[139.643943,35.899429],[139.64361,35.899362],[139.643451,35.899318],[139.643283,35.899252],[139.643201,35.899211],[139.643049,35.899127],[139.642725,35.898935],[139.642681,35.89889],[139.64266,35.898844],[139.642663,35.898798],[139.642758,35.898481],[139.642828,35.89825],[139.642875,35.898106],[139.642849,35.8981],[139.642903,35.897961],[139.642952,35.897895],[139.642996,35.897854],[139.643033,35.897829],[139.643173,35.897753],[139.643275,35.897712],[139.643345,35.897674],[139.64346,35.897611],[139.643564,35.897553],[139.644037,35.897282],[139.644098,35.897246],[139.644134,35.897218],[139.644164,35.897188],[139.644269,35.896999],[139.644352,35.896854],[139.644466,35.89669],[139.644628,35.896525],[139.644685,35.896479],[139.644758,35.896419],[139.644898,35.896298],[139.645013,35.896224],[139.645092,35.896181],[139.645163,35.896152],[139.645228,35.896137],[139.645277,35.896116],[139.64534,35.896082],[139.64538,35.896056],[139.645406,35.896029],[139.645448,35.895975],[139.645724,35.895619],[139.645804,35.895518],[139.645918,35.895395],[139.646053,35.895244],[139.646094,35.895197],[139.646118,35.895137],[139.646118,35.895072],[139.646037,35.894918],[139.645961,35.89479],[139.645865,35.894632],[139.645752,35.894472],[139.645667,35.894321],[139.645625,35.894205],[139.645569,35.894058],[139.645502,35.893934],[139.64546,35.893879],[139.645224,35.893603],[139.645188,35.893555],[139.645172,35.893488],[139.645184,35.893412],[139.645216,35.893361],[139.645567,35.892974],[139.645643,35.892922],[139.645729,35.892907],[139.645956,35.892888],[139.646128,35.892888],[139.646201,35.8929],[139.646268,35.892924],[139.646314,35.89295],[139.646355,35.892982],[139.646398,35.893031],[139.646572,35.893302],[139.646652,35.893429],[139.646727,35.893521],[139.646762,35.893548],[139.646785,35.893563],[139.646831,35.893572],[139.646895,35.893579],[139.646959,35.893577],[139.647006,35.893572],[139.647061,35.893557],[139.647117,35.893534],[139.647206,35.893485],[139.647277,35.89344],[139.647372,35.893359],[139.647426,35.893303],[139.647602,35.893047],[139.647785,35.89278],[139.647999,35.892469],[139.648085,35.892346],[139.648174,35.892237],[139.648247,35.892183],[139.648523,35.89205],[139.648613,35.891996],[139.648672,35.891956],[139.648732,35.891902],[139.648782,35.891849],[139.648964,35.891637],[139.649049,35.891557],[139.649191,35.891442],[139.649332,35.891344],[139.649633,35.89109],[139.649719,35.891023],[139.649772,35.890992],[139.650046,35.890846],[139.650087,35.890821],[139.650184,35.890746],[139.650423,35.890603],[139.650692,35.890436],[139.650779,35.89035],[139.650863,35.89023],[139.65092,35.890139],[139.651054,35.889813],[139.651112,35.889673],[139.651133,35.889648],[139.65118,35.88961],[139.651236,35.889589],[139.65129,35.889581],[139.651687,35.889583],[139.652217,35.889586],[139.652348,35.889593],[139.652434,35.889612],[139.652503,35.889643],[139.652688,35.889748],[139.652949,35.8899],[139.653147,35.89],[139.653343,35.890075],[139.653889,35.890246],[139.65431,35.890375],[139.654551,35.890438],[139.654781,35.890486],[139.655086,35.890542],[139.656009,35.890679],[139.65691,35.890813],[139.65723,35.890861],[139.657302,35.890862],[139.65739,35.890853],[139.65745,35.890839],[139.657927,35.890665],[139.658065,35.890625],[139.65828,35.890582],[139.658444,35.890564],[139.658552,35.890558],[139.658971,35.890551],[139.659251,35.890545],[139.659515,35.890522],[139.659869,35.890476],[139.659975,35.890472],[139.660174,35.890471],[139.660686,35.890481],[139.661052,35.890488],[139.661153,35.890487],[139.661898,35.89044],[139.662047,35.890438],[139.662155,35.890437],[139.662656,35.890478],[139.662774,35.890491],[139.662815,35.890504],[139.662847,35.890515],[139.662896,35.890541],[139.662932,35.890572],[139.66296,35.890603],[139.662985,35.890643],[139.663002,35.890691],[139.663122,35.891202],[139.663201,35.891545],[139.663243,35.891653],[139.663289,35.891729],[139.663573,35.892132],[139.663921,35.892627],[139.663961,35.892685],[139.664147,35.892953],[139.664282,35.893144],[139.664411,35.893299],[139.664543,35.893432],[139.66468,35.893565],[139.664801,35.893676],[139.665059,35.893896],[139.665252,35.89396],[139.665439,35.894053],[139.665504,35.894079],[139.665606,35.892573],[139.665152,35.891598],[139.665413,35.890857],[139.667434,35.891156],[139.668367,35.89131],[139.669171,35.891329],[139.669692,35.891286],[139.670751,35.891077],[139.676646,35.889916],[139.676645,35.892143],[139.67686,35.89218],[139.676914,35.892173],[139.676998,35.892183],[139.677133,35.892199],[139.677173,35.892202],[139.677296,35.892209],[139.677457,35.892203],[139.677622,35.892189],[139.677787,35.892165],[139.678063,35.892108],[139.678717,35.891923],[139.679012,35.891876],[139.679813,35.891812],[139.679994,35.891776],[139.680231,35.891684],[139.680514,35.891508],[139.680549,35.891486],[139.680761,35.891353],[139.68118,35.891045],[139.681584,35.890745],[139.68181,35.890558],[139.681894,35.890471],[139.682139,35.890185],[139.682191,35.890091],[139.682294,35.889712],[139.682319,35.889636],[139.682371,35.88957],[139.682455,35.889515],[139.682697,35.889431],[139.683095,35.889313],[139.683204,35.889283],[139.683475,35.889209],[139.683577,35.889209],[139.683673,35.889229],[139.684218,35.889398],[139.684553,35.889509],[139.684686,35.889557],[139.684717,35.889159],[139.685017,35.887917],[139.685569,35.887121],[139.687017,35.885434],[139.687101,35.885342],[139.6888,35.886435],[139.689448,35.886861],[139.690855,35.887712],[139.695376,35.890641],[139.69566,35.890591],[139.695915,35.890513],[139.696105,35.890436],[139.690114,35.886527],[139.689228,35.88592],[139.687527,35.88484],[139.688413,35.883778],[139.689703,35.882294],[139.691223,35.880585],[139.691347,35.880641],[139.691428,35.880678],[139.696319,35.882159],[139.696332,35.88209],[139.696358,35.881983],[139.696408,35.881851],[139.696448,35.881758],[139.696568,35.881533],[139.696771,35.881244],[139.696849,35.881121],[139.696895,35.881059],[139.693851,35.88015],[139.693123,35.87993],[139.692452,35.879698],[139.692321,35.879656],[139.69215,35.879601],[139.694138,35.877597],[139.698903,35.872881],[139.701278,35.874305],[139.703642,35.875737],[139.703698,35.875651],[139.703839,35.875437],[139.703927,35.875285],[139.704025,35.87518],[139.704117,35.87508],[139.70419,35.875031],[139.704363,35.874913],[139.704529,35.874831],[139.704668,35.874816],[139.704811,35.874842],[139.705431,35.875226],[139.705628,35.875291],[139.705925,35.875379],[139.706039,35.875383],[139.706495,35.875287],[139.707095,35.875015],[139.707295,35.874838],[139.707355,35.874781],[139.707463,35.874573],[139.707416,35.874226],[139.707368,35.873782],[139.707321,35.873099],[139.707328,35.872816],[139.707331,35.872263],[139.707396,35.872079],[139.707428,35.872006],[139.707724,35.871565],[139.707984,35.871076],[139.708334,35.870471],[139.708726,35.869999],[139.709098,35.869562],[139.709173,35.86945],[139.709305,35.869161],[139.709346,35.869055],[139.709316,35.869002],[139.709183,35.868953],[139.708873,35.868848],[139.708667,35.8688],[139.708386,35.868767],[139.707896,35.868829],[139.707543,35.868861],[139.707382,35.868871],[139.707206,35.868854],[139.706125,35.868978],[139.706127,35.869513],[139.705186,35.86961],[139.704708,35.869564],[139.704217,35.869452],[139.703667,35.869193],[139.702359,35.868586],[139.701657,35.868214],[139.699093,35.86695],[139.700104,35.865587],[139.700734,35.864677],[139.70098,35.864216],[139.700444,35.864053],[139.701612,35.862207],[139.702727,35.86205],[139.702231,35.861739],[139.701434,35.861334],[139.701697,35.861027],[139.700273,35.860251],[139.700323,35.86016],[139.699715,35.859952],[139.699503,35.859899],[139.699141,35.85976],[139.699647,35.858852],[139.699709,35.8587],[139.699716,35.858597],[139.699659,35.858466],[139.69953,35.858353],[139.69944,35.858341],[139.69893,35.85797],[139.698327,35.857576],[139.698043,35.857403],[139.697599,35.857309],[139.69752,35.857261],[139.697484,35.857202],[139.697428,35.856882],[139.697426,35.85679],[139.697459,35.856688],[139.697472,35.856568],[139.697457,35.856468],[139.697391,35.856351],[139.69725,35.85622],[139.697028,35.856057],[139.696615,35.85582],[139.696296,35.85564],[139.696165,35.855547],[139.695914,35.855246],[139.695635,35.855051],[139.695573,35.855006],[139.695315,35.854818],[139.695044,35.854646],[139.694673,35.854464],[139.694542,35.854429],[139.694336,35.854426],[139.694199,35.854405],[139.694108,35.854366],[139.694014,35.854291],[139.693803,35.854063],[139.694229,35.853664],[139.694743,35.854013],[139.695003,35.85372],[139.695944,35.85433],[139.695741,35.854609],[139.696212,35.8549],[139.696807,35.854304],[139.69732,35.854627],[139.697358,35.854651],[139.697407,35.854599],[139.698001,35.853989],[139.697522,35.853672],[139.697402,35.853797],[139.69688,35.853462],[139.696256,35.854077],[139.695737,35.853749],[139.696486,35.85299],[139.695779,35.852547],[139.695551,35.852463],[139.696084,35.852197],[139.696231,35.852124],[139.696236,35.85123],[139.695637,35.851223],[139.695675,35.848465],[139.695445,35.848456],[139.694687,35.848473],[139.694232,35.848448],[139.693992,35.848421],[139.693726,35.848411],[139.693208,35.848378],[139.691695,35.848298],[139.691633,35.848123],[139.691548,35.848042],[139.691226,35.847836],[139.690035,35.847844],[139.689925,35.847757],[139.689651,35.847822],[139.689263,35.847653],[139.688749,35.847605],[139.688253,35.847502],[139.688045,35.84823],[139.687534,35.848392],[139.687434,35.848374],[139.687403,35.848521],[139.687316,35.848845],[139.687169,35.849517],[139.687137,35.849858],[139.687055,35.850039],[139.68693,35.850196],[139.68667,35.850394],[139.686211,35.850696],[139.6857,35.851106],[139.685339,35.85147],[139.684864,35.851995],[139.684441,35.852347],[139.683595,35.852894],[139.683028,35.853181],[139.682199,35.853592],[139.681182,35.854142],[139.680908,35.854347],[139.680319,35.854939],[139.680192,35.85509],[139.679938,35.85542],[139.679526,35.855939],[139.679501,35.85597],[139.679245,35.85628],[139.678666,35.857054],[139.678265,35.857602],[139.677769,35.858392],[139.677117,35.859061],[139.676727,35.859385],[139.676154,35.8598],[139.675323,35.860383],[139.674119,35.860961],[139.672575,35.862471],[139.671996,35.863075],[139.671394,35.863789],[139.671173,35.864025],[139.671053,35.864187],[139.670962,35.864346],[139.670738,35.864739],[139.670252,35.865544],[139.669721,35.866335],[139.670258,35.866616],[139.671455,35.86656],[139.671493,35.867056],[139.670799,35.868046],[139.669372,35.867331],[139.668736,35.868225],[139.668468,35.868427],[139.668202,35.868538],[139.667684,35.868721],[139.667199,35.868792],[139.666779,35.868923],[139.666307,35.869193],[139.666691,35.869542],[139.667129,35.869858],[139.667408,35.869525],[139.66798,35.869799],[139.669535,35.870527],[139.670721,35.871075],[139.671727,35.87155],[139.672049,35.870824],[139.672258,35.870234],[139.672431,35.869881],[139.673323,35.870156],[139.675983,35.870526],[139.675719,35.871379],[139.675628,35.871672],[139.675285,35.871618],[139.675221,35.871892],[139.67521,35.871938],[139.675087,35.872364],[139.675069,35.872757],[139.675067,35.872823],[139.677155,35.873117],[139.678487,35.87333],[139.678706,35.873393],[139.680115,35.87401],[139.680035,35.874121],[139.679485,35.874882],[139.678673,35.874534],[139.678308,35.874379],[139.678088,35.874333],[139.677131,35.874205],[139.676196,35.874071],[139.674488,35.873855],[139.673373,35.873741],[139.673053,35.873681],[139.672622,35.873562],[139.671333,35.873],[139.669248,35.872068],[139.66666,35.87091],[139.667203,35.871733],[139.665926,35.872754],[139.665588,35.872716],[139.66542,35.872471],[139.665073,35.872257],[139.664511,35.872035],[139.663902,35.871813],[139.66366,35.870762],[139.663134,35.871222],[139.662732,35.871642],[139.662284,35.872003],[139.661377,35.872681],[139.660791,35.873088],[139.659857,35.873764],[139.65944,35.874137],[139.659004,35.874599],[139.657812,35.876193],[139.656474,35.877667],[139.656073,35.878032],[139.655607,35.878482],[139.6556,35.878487],[139.655425,35.878722],[139.655079,35.87934],[139.654764,35.879881],[139.654295,35.880546],[139.653842,35.881167],[139.654428,35.881769],[139.654684,35.88199],[139.654336,35.882541],[139.653298,35.881669],[139.652649,35.882159],[139.652275,35.882429],[139.652218,35.882475],[139.652177,35.882542],[139.65193,35.882971],[139.651738,35.883222],[139.651406,35.883463],[139.651073,35.883646],[139.649882,35.884145],[139.649808,35.884176],[139.649127,35.884803],[139.647431,35.886453],[139.647625,35.886498],[139.647581,35.886536],[139.647408,35.88679],[139.647393,35.887042],[139.646937,35.886959],[139.646853,35.886943],[139.646012,35.887871],[139.645758,35.888153],[139.645596,35.888386],[139.645478,35.888586],[139.645053,35.88954],[139.644868,35.889952],[139.644913,35.890048],[139.645178,35.890073],[139.64512,35.890435],[139.644522,35.8917],[139.644368,35.891954],[139.64413,35.89228],[139.64375,35.892884],[139.642131,35.895686],[139.641813,35.89657],[139.641659,35.898188],[139.641587,35.899283],[139.64165,35.900087],[139.641693,35.900746],[139.641735,35.901396],[139.641458,35.901787],[139.641291,35.902111],[139.640472,35.90205],[139.639851,35.902004],[139.639308,35.901958],[139.638281,35.902601],[139.63642,35.903654],[139.636064,35.903893],[139.635641,35.904335],[139.635841,35.90438],[139.635679,35.906916],[139.636498,35.907357],[139.636754,35.907495],[139.636997,35.907667],[139.634537,35.907687],[139.63446,35.909271],[139.634405,35.909848],[139.634253,35.91022],[139.634141,35.910594],[139.634081,35.910894],[139.634088,35.911263],[139.638119,35.913424],[139.6377,35.913909],[139.634772,35.912267],[139.634514,35.912129],[139.63541,35.914932],[139.635505,35.914939],[139.636108,35.915269],[139.636587,35.914874],[139.637026,35.915119],[139.637793,35.914208],[139.639086,35.914924]],[[139.676281,35.879886],[139.676438,35.878993],[139.676448,35.878274],[139.677421,35.877834],[139.678085,35.877443],[139.678759,35.876945],[139.679194,35.876471],[139.680141,35.875266],[139.690561,35.880285],[139.689091,35.881937],[139.687793,35.883429],[139.686902,35.884486],[139.682464,35.882571],[139.680599,35.881748],[139.679406,35.881184],[139.677393,35.880368],[139.676965,35.880203],[139.676246,35.880101],[139.676281,35.879886]],[[139.682105,35.872738],[139.690229,35.872393],[139.691226,35.87235],[139.691253,35.872349],[139.691356,35.872344],[139.694371,35.872187],[139.697843,35.872206],[139.698239,35.872497],[139.696885,35.873901],[139.693554,35.87721],[139.691437,35.879343],[139.680895,35.874299],[139.682105,35.872738]],[[139.67761,35.887181],[139.677722,35.88664],[139.677945,35.88588],[139.67812,35.885301],[139.67832,35.884504],[139.67842,35.884542],[139.678757,35.884681],[139.678829,35.884715],[139.678941,35.884724],[139.67898,35.88472],[139.679108,35.884705],[139.679643,35.884585],[139.680238,35.884445],[139.680511,35.884431],[139.680719,35.884407],[139.680963,35.884345],[139.681142,35.884272],[139.681391,35.884234],[139.681659,35.884215],[139.681992,35.884225],[139.682515,35.884289],[139.682978,35.884381],[139.683002,35.883738],[139.683011,35.88346],[139.686463,35.885008],[139.68494,35.886783],[139.684419,35.887428],[139.684292,35.88774],[139.683985,35.88876],[139.681896,35.888513],[139.680852,35.888498],[139.680045,35.888575],[139.677448,35.889138],[139.67761,35.887181]],[[139.665769,35.889795],[139.665935,35.889281],[139.666365,35.888033],[139.666444,35.887845],[139.669155,35.887612],[139.66924,35.887429],[139.669352,35.887216],[139.670018,35.886684],[139.670224,35.886494],[139.67043,35.886167],[139.670862,35.884875],[139.670875,35.884859],[139.670935,35.884793],[139.670997,35.884739],[139.671015,35.884725],[139.671079,35.884646],[139.671104,35.884579],[139.671181,35.884335],[139.67125,35.884107],[139.671269,35.884043],[139.671866,35.882092],[139.671951,35.882068],[139.673061,35.881753],[139.674119,35.881608],[139.674235,35.881821],[139.674336,35.882005],[139.674369,35.88207],[139.674429,35.882178],[139.674588,35.882475],[139.674611,35.882514],[139.675032,35.882412],[139.675174,35.882373],[139.675252,35.882344],[139.675359,35.88231],[139.675514,35.882233],[139.675655,35.882741],[139.675661,35.88292],[139.67572,35.883037],[139.676071,35.883037],[139.676291,35.883052],[139.676873,35.88313],[139.677022,35.88314],[139.677254,35.882982],[139.677491,35.883575],[139.677474,35.884141],[139.677426,35.88454],[139.677059,35.885854],[139.676804,35.886948],[139.676677,35.889271],[139.670894,35.890417],[139.669579,35.890699],[139.669231,35.890724],[139.668836,35.89071],[139.668408,35.890684],[139.667475,35.890554],[139.665612,35.89027],[139.665769,35.889795]]]},"properties":{"name":"高度地区（15ｍ地区）","hmax":15.0,"notice":"さいたま市告示第７５３号","date":"2025/04/25"}},{"type":"Feature","geometry":{"type":"Polygon","coordinates":[[[139.612802,35.893689],[139.613076,35.894029],[139.613291,35.894264],[139.614553,35.895031],[139.615244,35.895442],[139.615849,35.895745],[139.619257,35.897067],[139.619714,35.895702],[139.6204,35.894066],[139.620432,35.893988],[139.620579,35.893719],[139.620718,35.89356],[139.620825,35.893479],[139.621125,35.893252],[139.621391,35.893055],[139.621468,35.892924],[139.621541,35.892706],[139.621859,35.891513],[139.62192,35.891209],[139.62196,35.891004],[139.622011,35.89077],[139.622555,35.888241],[139.622579,35.888121],[139.622625,35.887892],[139.62274,35.887653],[139.62275,35.887633],[139.62336,35.886461],[139.623798,35.885569],[139.623832,35.885503],[139.62399,35.8852],[139.624061,35.885063],[139.624463,35.884283],[139.624986,35.883279],[139.625027,35.883197],[139.624515,35.883128],[139.623543,35.883055],[139.622621,35.882863],[139.621596,35.882635],[139.62124,35.883541],[139.620863,35.884395],[139.622255,35.884693],[139.622061,35.885146],[139.620701,35.88483],[139.619766,35.887244],[139.619561,35.88771],[139.618788,35.889827],[139.618466,35.890307],[139.617834,35.890135],[139.618032,35.889611],[139.617104,35.889344],[139.617038,35.889513],[139.617026,35.889545],[139.616961,35.889731],[139.617383,35.889857],[139.617133,35.890449],[139.61802,35.890712],[139.617979,35.890808],[139.617971,35.890825],[139.617849,35.890977],[139.617784,35.89105],[139.617696,35.891132],[139.615771,35.892737],[139.614467,35.892388],[139.614376,35.892606],[139.614345,35.892679],[139.61433,35.892714],[139.613807,35.893963],[139.612802,35.893689]]]},"properties":{"name":"高度地区（20ｍ地区）","hmax":20.0,"notice":"さいたま市1618","date":"2017/11/22"}},{"type":"Feature","geometry":{"type":"Polygon","coordinates":[[[139.619716,35.901217],[139.619908,35.901272],[139.619996,35.901296],[139.619893,35.901525],[139.620215,35.901628],[139.620301,35.901658],[139.620343,35.901721],[139.62174,35.90095],[139.623238,35.900156],[139.623799,35.899152],[139.623929,35.898922],[139.624143,35.898543],[139.622575,35.897976],[139.623254,35.896902],[139.622627,35.896738],[139.622997,35.895736],[139.625277,35.896472],[139.624479,35.897949],[139.625166,35.89818],[139.625568,35.897524],[139.625638,35.897543],[139.625916,35.896615],[139.626491,35.895129],[139.627025,35.893795],[139.626572,35.893671],[139.627076,35.892979],[139.627112,35.892932],[139.627255,35.892733],[139.626565,35.892537],[139.62669,35.892245],[139.626704,35.892212],[139.626735,35.892151],[139.627632,35.890082],[139.626505,35.888318],[139.626509,35.888146],[139.626814,35.888178],[139.627054,35.888203],[139.628281,35.88839],[139.628344,35.888394],[139.62907,35.888502],[139.629325,35.887779],[139.629613,35.887012],[139.629811,35.887038],[139.630021,35.886418],[139.630036,35.886402],[139.630311,35.885699],[139.630464,35.885397],[139.630614,35.885035],[139.630767,35.884334],[139.62992,35.884332],[139.629712,35.8843],[139.629595,35.884279],[139.629374,35.884236],[139.628307,35.883874],[139.627696,35.88364],[139.627358,35.883586],[139.626594,35.883412],[139.625134,35.886284],[139.624755,35.886999],[139.624109,35.888283],[139.623739,35.890135],[139.623531,35.891081],[139.623506,35.891206],[139.62349,35.891288],[139.623391,35.891665],[139.623347,35.891834],[139.623115,35.892733],[139.622961,35.893239],[139.622821,35.893539],[139.622659,35.893774],[139.622477,35.893926],[139.622305,35.89406],[139.621954,35.894327],[139.621204,35.896111],[139.621117,35.89633],[139.62082,35.897002],[139.620799,35.897118],[139.620608,35.897763],[139.620576,35.897872],[139.620281,35.899045],[139.620132,35.899662],[139.620005,35.900537],[139.619716,35.901217]]]},"properties":{"name":"高度地区（20ｍ地区）","hmax":20.0,"notice":"さいたま市1618","date":"2017/11/22"}},{"type":"Feature","geometry":{"type":"Polygon","coordinates":[[[139.628806,35.890773],[139.63008,35.89112],[139.6301,35.891061],[139.630781,35.89123],[139.630948,35.891071],[139.631334,35.890838],[139.631674,35.890702],[139.632002,35.890573],[139.632521,35.890352],[139.632683,35.890289],[139.632974,35.890169],[139.633359,35.889983],[139.633644,35.889221],[139.633145,35.889089],[139.633461,35.888748],[139.633158,35.888679],[139.63324,35.888447],[139.633875,35.888632],[139.635026,35.887],[139.635109,35.887012],[139.635952,35.887056],[139.636073,35.887056],[139.636122,35.887079],[139.636233,35.887132],[139.63649,35.887194],[139.637043,35.88735],[139.637315,35.887436],[139.637431,35.88749],[139.637936,35.886398],[139.636783,35.886102],[139.636852,35.885986],[139.635665,35.885699],[139.634583,35.885494],[139.635246,35.884633],[139.634033,35.884497],[139.63317,35.884412],[139.632607,35.884351],[139.632187,35.884344],[139.631846,35.88524],[139.631708,35.885674],[139.631548,35.886063],[139.631257,35.88667],[139.631426,35.886867],[139.631506,35.887046],[139.631509,35.887246],[139.631213,35.887219],[139.630615,35.888692],[139.629751,35.888595],[139.629412,35.889376],[139.628806,35.890773]]]},"properties":{"name":"高度地区（20ｍ地区）","hmax":20.0,"notice":"さいたま市1618","date":"2017/11/22"}},{"type":"Feature","geometry":{"type":"Polygon","coordinates":[[[139.626949,35.88275],[139.627625,35.882896],[139.627929,35.882958],[139.628336,35.883105],[139.629785,35.883599],[139.630026,35.883655],[139.630755,35.883677],[139.631305,35.883703],[139.63209,35.883721],[139.632908,35.883738],[139.634129,35.883871],[139.635224,35.883986],[139.635711,35.884056],[139.635822,35.883887],[139.63594,35.883733],[139.636168,35.883314],[139.636645,35.882251],[139.636549,35.882148],[139.636447,35.882014],[139.636278,35.88179],[139.635853,35.881594],[139.633952,35.880917],[139.633614,35.880779],[139.633576,35.880846],[139.632157,35.883055],[139.63177,35.883039],[139.631561,35.883033],[139.631426,35.883025],[139.63176,35.881262],[139.631055,35.881416],[139.631034,35.881136],[139.630987,35.880673],[139.630979,35.880428],[139.630928,35.880121],[139.630793,35.879816],[139.630612,35.879559],[139.630382,35.87952],[139.63009,35.879488],[139.629543,35.879428],[139.628247,35.880531],[139.62807,35.880753],[139.627792,35.881154],[139.62739,35.881913],[139.626949,35.88275]]]},"properties":{"name":"高度地区（20ｍ地区）","hmax":20.0,"notice":"さいたま市1618","date":"2017/11/22"}},{"type":"Feature","geometry":{"type":"MultiPolygon","coordinates":[[[[139.669107,35.866585],[139.668892,35.866874],[139.833333,36.0],[139.669107,35.866585]]],[[[139.659834,35.859534],[139.657855,35.862371],[139.657822,35.862417],[139.660251,35.86442],[139.661095,35.865083],[139.661885,35.865658],[139.662651,35.866312],[139.663271,35.866869],[139.663618,35.867204],[139.663724,35.867282],[139.663831,35.867323],[139.663972,35.867332],[139.665772,35.86733],[139.666081,35.867372],[139.66629,35.867404],[139.666526,35.867464],[139.666818,35.867565],[139.667429,35.867862],[139.667824,35.868066],[139.668258,35.867728],[139.668892,35.866874],[139.659834,35.859534]]],[[[139.652699,35.853752],[139.659834,35.859534],[139.660052,35.859223],[139.653378,35.853796],[139.652699,35.853752]]],[[[139.648832,35.850619],[139.6486,35.851019],[139.648263,35.851921],[139.648196,35.852275],[139.647983,35.853832],[139.648539,35.85387],[139.64931,35.853919],[139.649993,35.853961],[139.65059,35.85392],[139.651487,35.853777],[139.652364,35.853731],[139.652699,35.853752],[139.648832,35.850619]]],[[[139.648944,35.850424],[139.648603,35.850433],[139.648832,35.850619],[139.648944,35.850424]]],[[[139.645131,35.829442],[139.644816,35.829524],[139.644326,35.829706],[139.644251,35.829691],[139.6442,35.829722],[139.64415,35.829739],[139.643873,35.829807],[139.643573,35.829865],[139.643389,35.829875],[139.643267,35.830033],[139.643238,35.830021],[139.643156,35.830099],[139.643008,35.830057],[139.642844,35.830297],[139.642917,35.830321],[139.642775,35.830565],[139.642663,35.830532],[139.642475,35.830825],[139.641949,35.830668],[139.642016,35.830363],[139.641948,35.830376],[139.641763,35.830366],[139.641501,35.830355],[139.641401,35.830335],[139.641219,35.830311],[139.641088,35.83064],[139.641152,35.831037],[139.64115,35.831172],[139.641141,35.831466],[139.641188,35.831565],[139.641161,35.831991],[139.641064,35.831979],[139.641078,35.832217],[139.640789,35.832932],[139.639919,35.834701],[139.639064,35.837297],[139.638902,35.838442],[139.638839,35.839089],[139.638527,35.840103],[139.638491,35.840334],[139.638419,35.840952],[139.637816,35.841606],[139.63732,35.842102],[139.636744,35.842519],[139.63639,35.842648],[139.635895,35.842863],[139.635443,35.843301],[139.635151,35.843444],[139.634602,35.843746],[139.634159,35.844385],[139.633273,35.845118],[139.633095,35.845463],[139.632953,35.845736],[139.632349,35.847891],[139.632107,35.848475],[139.631503,35.848843],[139.631026,35.84861],[139.630515,35.849147],[139.629528,35.850087],[139.629604,35.850095],[139.629984,35.850085],[139.630696,35.85005],[139.631229,35.850053],[139.632036,35.850051],[139.632518,35.850101],[139.63265,35.850144],[139.63287,35.850215],[139.633254,35.850429],[139.633585,35.850646],[139.633891,35.850864],[139.634661,35.851513],[139.63511,35.8519],[139.635768,35.851984],[139.635879,35.852007],[139.636312,35.852095],[139.636901,35.852308],[139.637287,35.852521],[139.637639,35.852795],[139.637863,35.853041],[139.63809,35.85339],[139.638221,35.85364],[139.638408,35.854034],[139.638675,35.854637],[139.638402,35.854601],[139.638494,35.854932],[139.638521,35.855202],[139.638507,35.855452],[139.638466,35.8557],[139.638381,35.856079],[139.637987,35.858128],[139.638457,35.858165],[139.638501,35.858013],[139.638487,35.857855],[139.638443,35.857612],[139.638431,35.85745],[139.638451,35.857261],[139.638623,35.856698],[139.638909,35.85567],[139.639069,35.854937],[139.639144,35.854585],[139.639338,35.854587],[139.639484,35.854594],[139.639501,35.854712],[139.640046,35.854718],[139.640739,35.854664],[139.641124,35.854664],[139.641392,35.854657],[139.641918,35.854629],[139.642618,35.85462],[139.642548,35.854935],[139.642454,35.855433],[139.642257,35.856366],[139.641979,35.857541],[139.641463,35.858427],[139.640179,35.858301],[139.640205,35.858395],[139.640198,35.858523],[139.640166,35.858782],[139.640535,35.858816],[139.640447,35.859977],[139.638891,35.859695],[139.638381,35.85962],[139.638065,35.859571],[139.63774,35.859521],[139.637733,35.859556],[139.6377,35.859705],[139.637646,35.859889],[139.637642,35.859962],[139.637634,35.860085],[139.638304,35.860173],[139.638469,35.860198],[139.638689,35.860232],[139.638837,35.860254],[139.638993,35.860286],[139.639196,35.860311],[139.64012,35.860506],[139.64021,35.860663],[139.640402,35.860733],[139.640305,35.861954],[139.640238,35.862811],[139.64023,35.862912],[139.640215,35.863062],[139.640139,35.864064],[139.640063,35.865015],[139.64005,35.865184],[139.640039,35.865324],[139.639608,35.865166],[139.638005,35.864616],[139.637837,35.864582],[139.637685,35.864526],[139.637558,35.86449],[139.637468,35.864451],[139.637295,35.86441],[139.637004,35.864325],[139.63668,35.864253],[139.636567,35.864236],[139.636272,35.864188],[139.635955,35.864153],[139.635876,35.864245],[139.635824,35.864439],[139.635719,35.864802],[139.635376,35.864742],[139.634662,35.864611],[139.634433,35.865053],[139.635227,35.865187],[139.636335,35.865427],[139.6371,35.865616],[139.637118,35.865631],[139.637696,35.865791],[139.637959,35.865882],[139.63972,35.86649],[139.640231,35.866631],[139.640513,35.866677],[139.640991,35.866725],[139.64076,35.869146],[139.640637,35.86914],[139.640633,35.86917],[139.64059,35.869476],[139.640589,35.869483],[139.640587,35.869499],[139.639827,35.869469],[139.639825,35.86948],[139.639769,35.869803],[139.639764,35.869835],[139.639712,35.870134],[139.639703,35.870182],[139.6397,35.870201],[139.639492,35.870213],[139.639454,35.870215],[139.639431,35.870391],[139.637351,35.87023],[139.637276,35.870197],[139.63673,35.870182],[139.63643,35.870164],[139.633686,35.86995],[139.633777,35.870183],[139.633846,35.870441],[139.633872,35.870546],[139.633898,35.870655],[139.634132,35.871534],[139.634449,35.872992],[139.634478,35.873268],[139.634456,35.873586],[139.634422,35.873806],[139.634358,35.874055],[139.634336,35.874135],[139.634324,35.87418],[139.634246,35.874431],[139.633895,35.875018],[139.63371,35.875292],[139.633611,35.875432],[139.633324,35.875749],[139.63323,35.875904],[139.632938,35.876354],[139.632732,35.87667],[139.632378,35.87725],[139.632223,35.877452],[139.632135,35.877544],[139.631798,35.877871],[139.63142,35.878232],[139.631262,35.878386],[139.631021,35.878646],[139.630924,35.878779],[139.630858,35.878853],[139.630725,35.879045],[139.630652,35.879154],[139.630599,35.87931],[139.630599,35.879383],[139.630612,35.879559],[139.631135,35.879636],[139.633332,35.880399],[139.633511,35.880474],[139.633759,35.88056],[139.63398,35.880175],[139.634357,35.880335],[139.635449,35.880729],[139.63715,35.881356],[139.637107,35.881669],[139.639559,35.882506],[139.639772,35.882579],[139.639928,35.882632],[139.639993,35.882655],[139.640804,35.882931],[139.641563,35.881864],[139.641822,35.881468],[139.642154,35.880931],[139.642384,35.880546],[139.642672,35.880126],[139.642931,35.879752],[139.64309,35.879402],[139.643436,35.878737],[139.643725,35.878212],[139.64521,35.875084],[139.645297,35.874944],[139.644703,35.874752],[139.644428,35.874656],[139.644127,35.875166],[139.643759,35.875829],[139.643228,35.875629],[139.643589,35.875023],[139.643908,35.874478],[139.6436,35.874365],[139.643145,35.874899],[139.641932,35.877589],[139.637854,35.876291],[139.638044,35.874921],[139.637969,35.875025],[139.637331,35.875868],[139.636595,35.876926],[139.635473,35.878606],[139.635125,35.878555],[139.635932,35.877384],[139.635335,35.877299],[139.634788,35.877233],[139.634969,35.876906],[139.635143,35.876697],[139.635306,35.876551],[139.635851,35.876087],[139.636185,35.87611],[139.636586,35.876182],[139.637462,35.874899],[139.63803,35.87438],[139.63812,35.87438],[139.638085,35.873851],[139.638004,35.872794],[139.637491,35.872735],[139.637522,35.872325],[139.63797,35.872363],[139.637945,35.871213],[139.637958,35.871212],[139.638031,35.871204],[139.638058,35.871201],[139.639127,35.871095],[139.639327,35.871105],[139.63928,35.872166],[139.64209,35.872351],[139.642137,35.871903],[139.640867,35.871826],[139.640939,35.871207],[139.642198,35.871327],[139.643378,35.871389],[139.643424,35.870929],[139.644627,35.870987],[139.644725,35.869841],[139.644994,35.869816],[139.645201,35.869404],[139.645297,35.868992],[139.645313,35.868717],[139.645408,35.868723],[139.645362,35.868348],[139.645572,35.866468],[139.645655,35.865924],[139.645655,35.865916],[139.645649,35.865915],[139.645663,35.865797],[139.645667,35.865753],[139.645676,35.865753],[139.645696,35.86559],[139.645821,35.864549],[139.645856,35.864248],[139.645848,35.864248],[139.645856,35.864175],[139.645865,35.864175],[139.645881,35.864048],[139.645873,35.864047],[139.645876,35.864025],[139.645889,35.863926],[139.645907,35.863763],[139.645915,35.863763],[139.645934,35.863584],[139.645936,35.863559],[139.645956,35.863354],[139.645977,35.863183],[139.645995,35.863027],[139.646,35.863028],[139.646056,35.862541],[139.643656,35.862389],[139.643869,35.860631],[139.643562,35.860606],[139.643596,35.860311],[139.642427,35.860145],[139.642309,35.860135],[139.64273,35.856482],[139.642994,35.854981],[139.64391,35.855093],[139.644879,35.855317],[139.644867,35.856365],[139.64503,35.856793],[139.644885,35.856781],[139.644452,35.860374],[139.646481,35.860549],[139.64671,35.858826],[139.645541,35.858738],[139.64565,35.857719],[139.646098,35.857758],[139.646195,35.856817],[139.646925,35.856753],[139.646967,35.856299],[139.646151,35.855754],[139.64518,35.855407],[139.645378,35.854723],[139.64582,35.854865],[139.646453,35.855072],[139.646974,35.855408],[139.647259,35.853793],[139.647268,35.853745],[139.647417,35.852749],[139.647509,35.852058],[139.647578,35.851736],[139.647856,35.850967],[139.648104,35.850446],[139.648603,35.850433],[139.644504,35.847111],[139.644489,35.847107],[139.644451,35.846991],[139.64438,35.846776],[139.644357,35.846666],[139.644434,35.846191],[139.644521,35.845933],[139.644964,35.845154],[139.645103,35.844835],[139.645253,35.844309],[139.64535,35.843927],[139.645533,35.843365],[139.645957,35.842407],[139.642555,35.841547],[139.642784,35.841874],[139.642672,35.842131],[139.641948,35.841942],[139.641656,35.84265],[139.64106,35.842392],[139.640225,35.842168],[139.640706,35.840579],[139.640656,35.840204],[139.641398,35.840108],[139.641212,35.839427],[139.641127,35.839427],[139.640865,35.838726],[139.640967,35.838545],[139.640603,35.83751],[139.650444,35.839001],[139.650812,35.838301],[139.65094,35.838197],[139.651051,35.838134],[139.65117,35.8381],[139.65129,35.838072],[139.651384,35.838065],[139.651503,35.838107],[139.651537,35.837934],[139.65158,35.837802],[139.651658,35.837594],[139.65188,35.837289],[139.654441,35.839757],[139.65566,35.838936],[139.656073,35.839595],[139.656437,35.840106],[139.656554,35.840128],[139.658,35.840296],[139.660104,35.838878],[139.660183,35.83908],[139.660199,35.839172],[139.660256,35.839481],[139.660213,35.839537],[139.66024,35.83994],[139.660368,35.840867],[139.660368,35.841089],[139.660282,35.841255],[139.659453,35.842344],[139.658879,35.843204],[139.658811,35.843294],[139.658794,35.843412],[139.6587,35.843405],[139.658512,35.843447],[139.654893,35.845316],[139.654013,35.846064],[139.653782,35.846356],[139.652986,35.847576],[139.651146,35.84654],[139.650318,35.846133],[139.650978,35.845175],[139.651007,35.844771],[139.65102,35.844599],[139.651063,35.844006],[139.649022,35.8428],[139.648775,35.842653],[139.647918,35.844545],[139.650497,35.845629],[139.650378,35.845788],[139.649511,35.845841],[139.649397,35.845978],[139.647314,35.846314],[139.647289,35.846246],[139.646086,35.846536],[139.64528,35.84721],[139.653378,35.853796],[139.654143,35.853845],[139.654511,35.853838],[139.654674,35.852462],[139.654772,35.851816],[139.654835,35.851193],[139.654986,35.850526],[139.655128,35.850304],[139.655357,35.850068],[139.65579,35.849731],[139.65609,35.849502],[139.656456,35.849223],[139.656689,35.848971],[139.656881,35.84866],[139.657182,35.847969],[139.657876,35.848134],[139.657747,35.848427],[139.657439,35.848977],[139.65726,35.849296],[139.656934,35.849621],[139.656258,35.85015],[139.655823,35.850477],[139.655691,35.85067],[139.655566,35.851065],[139.655495,35.85161],[139.655208,35.853825],[139.655234,35.854026],[139.655921,35.854063],[139.65674,35.854093],[139.656394,35.855017],[139.656914,35.855082],[139.658377,35.85469],[139.658827,35.854576],[139.659074,35.854132],[139.659112,35.853028],[139.659755,35.853],[139.659735,35.85391],[139.659708,35.854133],[139.659593,35.854419],[139.660704,35.854488],[139.660921,35.854558],[139.659775,35.8554],[139.658769,35.856562],[139.659227,35.856785],[139.65965,35.856893],[139.660078,35.857037],[139.660574,35.857296],[139.660996,35.857656],[139.661453,35.8579],[139.66214,35.858102],[139.663601,35.858227],[139.664307,35.858155],[139.664712,35.858048],[139.665197,35.857805],[139.666203,35.857182],[139.666272,35.857749],[139.665602,35.858171],[139.665046,35.858457],[139.664535,35.858657],[139.664218,35.858693],[139.663363,35.858684],[139.662699,35.860075],[139.660235,35.85896],[139.660052,35.859223],[139.669107,35.866585],[139.669395,35.866197],[139.669721,35.866335],[139.670252,35.865544],[139.670738,35.864739],[139.670962,35.864346],[139.671053,35.864187],[139.671173,35.864025],[139.671394,35.863789],[139.671996,35.863075],[139.672575,35.862471],[139.674119,35.860961],[139.675323,35.860383],[139.676154,35.8598],[139.676727,35.859385],[139.677117,35.859061],[139.677769,35.858392],[139.678265,35.857602],[139.678666,35.857054],[139.679245,35.85628],[139.679501,35.85597],[139.679526,35.855939],[139.679938,35.85542],[139.680192,35.85509],[139.680319,35.854939],[139.680908,35.854347],[139.681182,35.854142],[139.682199,35.853592],[139.683028,35.853181],[139.683595,35.852894],[139.684441,35.852347],[139.684864,35.851995],[139.685339,35.85147],[139.6857,35.851106],[139.686211,35.850696],[139.68667,35.850394],[139.68693,35.850196],[139.687055,35.850039],[139.687137,35.849858],[139.687169,35.849517],[139.687316,35.848845],[139.687403,35.848521],[139.687434,35.848374],[139.68696,35.848288],[139.686868,35.848308],[139.686601,35.848389],[139.685907,35.848639],[139.685205,35.848991],[139.685157,35.84905],[139.684871,35.849289],[139.684686,35.849412],[139.68409,35.849484],[139.683791,35.849488],[139.683794,35.849399],[139.683601,35.849315],[139.683218,35.849235],[139.682314,35.84952],[139.681822,35.849675],[139.681718,35.849738],[139.681525,35.849768],[139.681391,35.849704],[139.681234,35.849701],[139.680644,35.849919],[139.680456,35.850108],[139.680431,35.850135],[139.680187,35.850272],[139.680159,35.85024],[139.6798,35.850436],[139.679683,35.850296],[139.679237,35.850517],[139.678984,35.850738],[139.678683,35.85075],[139.67826,35.850938],[139.678303,35.851],[139.678204,35.851045],[139.678226,35.851079],[139.67815,35.851128],[139.678095,35.851076],[139.677711,35.851388],[139.677577,35.85128],[139.677214,35.85158],[139.677067,35.851571],[139.676954,35.851676],[139.676327,35.851319],[139.676062,35.851649],[139.675517,35.851316],[139.675546,35.851286],[139.675462,35.851146],[139.675458,35.851065],[139.675493,35.850948],[139.675589,35.850816],[139.675565,35.850709],[139.675291,35.850312],[139.675498,35.850059],[139.675726,35.849778],[139.675868,35.849631],[139.675999,35.849538],[139.67609,35.849492],[139.675883,35.84923],[139.675788,35.849123],[139.6759,35.848994],[139.676064,35.848817],[139.676139,35.848768],[139.676317,35.848713],[139.676483,35.848589],[139.676559,35.848347],[139.676669,35.848191],[139.676772,35.848077],[139.676751,35.848229],[139.677487,35.84778],[139.677258,35.847508],[139.676815,35.847664],[139.676541,35.847726],[139.676539,35.847641],[139.676417,35.847627],[139.676498,35.847128],[139.676262,35.847088],[139.676271,35.847035],[139.676714,35.846822],[139.67663,35.846704],[139.676222,35.84603],[139.676039,35.845662],[139.676936,35.845493],[139.677166,35.845469],[139.677382,35.845454],[139.677485,35.845262],[139.677558,35.844782],[139.677579,35.844711],[139.677629,35.844543],[139.677724,35.844371],[139.677784,35.844286],[139.67787,35.844167],[139.677698,35.844092],[139.677311,35.84391],[139.676816,35.84364],[139.676445,35.843427],[139.675932,35.843048],[139.675576,35.842776],[139.67528,35.841686],[139.675353,35.841609],[139.675498,35.841612],[139.675716,35.841568],[139.675905,35.841486],[139.676185,35.841217],[139.676324,35.841185],[139.676453,35.841188],[139.676914,35.841321],[139.677028,35.841381],[139.677355,35.841696],[139.677491,35.841756],[139.678143,35.84129],[139.678473,35.841056],[139.678676,35.840838],[139.679069,35.840411],[139.679066,35.840212],[139.678823,35.840042],[139.67877,35.839984],[139.678591,35.839767],[139.677332,35.839542],[139.675981,35.839073],[139.675993,35.839037],[139.675539,35.838925],[139.675725,35.838233],[139.675757,35.838112],[139.675829,35.837869],[139.675891,35.837683],[139.675946,35.837534],[139.676013,35.837352],[139.676149,35.836734],[139.676095,35.836668],[139.676119,35.836521],[139.67619,35.836045],[139.676239,35.83576],[139.676448,35.834956],[139.676609,35.834311],[139.676829,35.833399],[139.676869,35.833305],[139.676926,35.832921],[139.676835,35.832945],[139.676263,35.833084],[139.67591,35.833152],[139.675526,35.833205],[139.675042,35.833347],[139.674435,35.833492],[139.67419,35.833584],[139.673841,35.833753],[139.673612,35.833851],[139.673455,35.833932],[139.673278,35.834008],[139.672912,35.834186],[139.672636,35.834249],[139.672159,35.834494],[139.671616,35.834717],[139.670734,35.834966],[139.66998,35.835207],[139.669242,35.835452],[139.668644,35.835544],[139.668365,35.835577],[139.668335,35.835784],[139.668281,35.83629],[139.667049,35.836053],[139.665968,35.835686],[139.665169,35.83536],[139.66437,35.83493],[139.663844,35.83458],[139.662812,35.833816],[139.664511,35.832722],[139.662983,35.831156],[139.662437,35.831219],[139.662144,35.83125],[139.661988,35.831258],[139.661813,35.831242],[139.661628,35.83121],[139.661452,35.831138],[139.659495,35.830265],[139.658063,35.829545],[139.657845,35.829809],[139.657508,35.830233],[139.657137,35.8307],[139.656737,35.831203],[139.656661,35.8313],[139.65656,35.831427],[139.656146,35.831949],[139.655261,35.833066],[139.654364,35.834201],[139.653519,35.83528],[139.653442,35.83524],[139.65238,35.835194],[139.651938,35.835078],[139.652149,35.834566],[139.645275,35.832753],[139.645594,35.83196],[139.645149,35.831833],[139.645244,35.831572],[139.645484,35.83121],[139.64636,35.829909],[139.646468,35.829651],[139.646108,35.829566],[139.645879,35.82958],[139.645702,35.82951],[139.645131,35.829442]]],[[[139.665549,35.842866],[139.665487,35.843686],[139.665461,35.844352],[139.665707,35.844373],[139.66824,35.845955],[139.669095,35.845055],[139.669752,35.844313],[139.669856,35.844121],[139.670038,35.843266],[139.670902,35.843366],[139.67295,35.84376],[139.674187,35.843998],[139.673732,35.844391],[139.675176,35.845464],[139.674184,35.846009],[139.673876,35.845737],[139.67333,35.846117],[139.673442,35.846575],[139.673356,35.847484],[139.674019,35.847811],[139.674286,35.848012],[139.673806,35.8484],[139.67327,35.848805],[139.672942,35.849156],[139.672845,35.849262],[139.673166,35.850382],[139.672524,35.850942],[139.67157,35.85018],[139.671233,35.849665],[139.669548,35.848661],[139.668723,35.84925],[139.668582,35.849571],[139.668501,35.84973],[139.668152,35.850188],[139.666955,35.849556],[139.666093,35.849139],[139.665222,35.849051],[139.66753,35.846653],[139.666759,35.846305],[139.666583,35.846252],[139.665615,35.84596],[139.66558,35.84521],[139.664516,35.845211],[139.664443,35.843975],[139.662717,35.844051],[139.662598,35.843202],[139.662595,35.843178],[139.662554,35.842889],[139.664369,35.842891],[139.665549,35.842866]]],[[[139.647597,35.846558],[139.650475,35.847104],[139.650061,35.847779],[139.649976,35.84775],[139.649896,35.847693],[139.649664,35.84773],[139.648917,35.847826],[139.647865,35.847636],[139.647308,35.847535],[139.647597,35.846558]]],[[[139.670113,35.855895],[139.67244,35.857262],[139.671633,35.858122],[139.670744,35.858667],[139.669505,35.859188],[139.668216,35.85835],[139.668421,35.858151],[139.667949,35.857456],[139.668773,35.857238],[139.669148,35.856773],[139.669587,35.856412],[139.670113,35.855895]]]]},"properties":{"name":"高度地区（20ｍ地区）","hmax":20.0,"notice":"さいたま市1618","date":"2017/11/22"}},{"type":"Feature","geometry":{"type":"Polygon","coordinates":[[[139.647431,35.886453],[139.649127,35.884803],[139.649808,35.884176],[139.649882,35.884145],[139.651073,35.883646],[139.651406,35.883463],[139.651738,35.883222],[139.65193,35.882971],[139.652177,35.882542],[139.652218,35.882475],[139.652275,35.882429],[139.652649,35.882159],[139.652307,35.881985],[139.652036,35.882253],[139.651781,35.882569],[139.651398,35.881985],[139.652681,35.881092],[139.652107,35.88054],[139.650981,35.879395],[139.650671,35.879031],[139.650309,35.878559],[139.650175,35.878283],[139.649786,35.877578],[139.649737,35.877496],[139.649518,35.877114],[139.649183,35.876652],[139.648816,35.876167],[139.648443,35.875554],[139.648292,35.875255],[139.648211,35.875077],[139.646856,35.874618],[139.646511,35.875356],[139.646122,35.875221],[139.64448,35.878518],[139.644205,35.879034],[139.643878,35.879756],[139.643727,35.880055],[139.643476,35.880429],[139.643139,35.880916],[139.642915,35.881298],[139.642533,35.881906],[139.642345,35.882206],[139.641421,35.883494],[139.641068,35.884027],[139.640889,35.884299],[139.640263,35.88527],[139.643044,35.885893],[139.643431,35.885925],[139.644548,35.886004],[139.645674,35.886131],[139.646611,35.886278],[139.646729,35.886306],[139.646867,35.88633],[139.647431,35.886453]]]},"properties":{"name":"高度地区（20ｍ地区）","hmax":20.0,"notice":"さいたま市1618","date":"2017/11/22"}},{"type":"Feature","geometry":{"type":"Polygon","coordinates":[[[139.634537,35.907687],[139.636997,35.907667],[139.636754,35.907495],[139.636498,35.907357],[139.635679,35.906916],[139.635841,35.90438],[139.635641,35.904335],[139.636064,35.903893],[139.63642,35.903654],[139.638281,35.902601],[139.639308,35.901958],[139.639851,35.902004],[139.640472,35.90205],[139.641291,35.902111],[139.641458,35.901787],[139.641735,35.901396],[139.641693,35.900746],[139.64165,35.900087],[139.641587,35.899283],[139.641659,35.898188],[139.641813,35.89657],[139.642131,35.895686],[139.64375,35.892884],[139.64413,35.89228],[139.644368,35.891954],[139.644522,35.8917],[139.64512,35.890435],[139.645178,35.890073],[139.644913,35.890048],[139.644868,35.889952],[139.645053,35.88954],[139.645478,35.888586],[139.645596,35.888386],[139.645758,35.888153],[139.646012,35.887871],[139.646853,35.886943],[139.646131,35.886792],[139.645906,35.886762],[139.644782,35.886607],[139.643478,35.8865],[139.643114,35.886492],[139.642689,35.88643],[139.639916,35.885807],[139.639071,35.887144],[139.638562,35.888014],[139.638669,35.888065],[139.640831,35.888869],[139.641275,35.888111],[139.641906,35.888371],[139.6417,35.888703],[139.6426,35.889225],[139.64218,35.889379],[139.64169,35.889598],[139.64121,35.889883],[139.640753,35.890238],[139.640468,35.890469],[139.640168,35.89074],[139.64006,35.890931],[139.63998,35.891333],[139.639893,35.89154],[139.639743,35.891786],[139.642275,35.892768],[139.642909,35.893013],[139.641895,35.894823],[139.639561,35.893915],[139.639083,35.893667],[139.638875,35.893593],[139.638734,35.893519],[139.638455,35.893974],[139.638262,35.894293],[139.638211,35.894452],[139.638277,35.89455],[139.638205,35.894689],[139.638254,35.894984],[139.638205,35.895292],[139.638182,35.89549],[139.638126,35.89588],[139.637924,35.897219],[139.637891,35.897643],[139.637889,35.897713],[139.637881,35.898031],[139.637874,35.89813],[139.63685,35.898098],[139.635524,35.898022],[139.632223,35.896657],[139.631895,35.896522],[139.63139,35.897158],[139.631705,35.897295],[139.631658,35.897353],[139.632133,35.89757],[139.631719,35.898144],[139.631374,35.904827],[139.631386,35.904942],[139.632216,35.905151],[139.633026,35.90519],[139.634728,35.905249],[139.634656,35.906068],[139.634537,35.907687]]]},"properties":{"name":"高度地区（20ｍ地区）","hmax":20.0,"notice":"さいたま市1618","date":"2017/11/22"}},{"type":"Feature","geometry":{"type":"Polygon","coordinates":[[[139.63541,35.914932],[139.634514,35.912129],[139.634198,35.911967],[139.633484,35.911674],[139.63317,35.91158],[139.63263,35.911385],[139.630991,35.91084],[139.630947,35.91205],[139.632396,35.912096],[139.632288,35.913913],[139.63277,35.913935],[139.632961,35.913942],[139.633144,35.913985],[139.633987,35.913809],[139.634,35.913841],[139.634287,35.913775],[139.634447,35.914167],[139.634556,35.914206],[139.634664,35.914252],[139.634829,35.914419],[139.635258,35.914936],[139.63541,35.914932]]]},"properties":{"name":"高度地区（20ｍ地区）","hmax":20.0,"notice":"さいたま市1618","date":"2017/11/22"}},{"type":"Feature","geometry":{"type":"Polygon","coordinates":[[[139.627257,35.922255],[139.626981,35.921757],[139.626094,35.919997],[139.625834,35.919486],[139.62611,35.918608],[139.626562,35.916909],[139.626992,35.915847],[139.627281,35.915907],[139.627566,35.916003],[139.62799,35.914407],[139.629044,35.914578],[139.629723,35.911918],[139.630114,35.911982],[139.630509,35.911986],[139.630582,35.910734],[139.627258,35.910295],[139.62714,35.91074],[139.62673,35.912382],[139.62692,35.913718],[139.626815,35.914325],[139.626559,35.915539],[139.626006,35.916202],[139.625784,35.917556],[139.625436,35.918696],[139.624036,35.918207],[139.623301,35.920923],[139.624954,35.921413],[139.626053,35.921713],[139.627257,35.922255]]]},"properties":{"name":"高度地区（20ｍ地区）","hmax":20.0,"notice":"さいたま市1618","date":"2017/11/22"}},{"type":"Feature","geometry":{"type":"Polygon","coordinates":[[[139.618144,35.923263],[139.621532,35.924203],[139.623333,35.917958],[139.623995,35.916015],[139.623015,35.914022],[139.622874,35.913651],[139.622745,35.91309],[139.622687,35.912316],[139.622782,35.911703],[139.62054,35.916979],[139.618617,35.91623],[139.61869,35.915323],[139.618679,35.915103],[139.618599,35.914368],[139.618576,35.913891],[139.618647,35.913671],[139.618896,35.913023],[139.619073,35.912576],[139.619112,35.912515],[139.619223,35.912323],[139.619462,35.911907],[139.619686,35.911468],[139.619993,35.910667],[139.620787,35.908706],[139.617221,35.907544],[139.6168,35.908479],[139.616413,35.909304],[139.616049,35.910144],[139.615884,35.910499],[139.615532,35.911415],[139.615436,35.912222],[139.61538,35.91366],[139.61536,35.91459],[139.615249,35.916631],[139.615193,35.917894],[139.615196,35.918729],[139.615293,35.919779],[139.615423,35.921279],[139.618588,35.922133],[139.618144,35.923263]]]},"properties":{"name":"高度地区（20ｍ地区）","hmax":20.0,"notice":"さいたま市1618","date":"2017/11/22"}},{"type":"Feature","geometry":{"type":"Polygon","coordinates":[[[139.610316,35.910614],[139.614794,35.911345],[139.614931,35.910837],[139.615135,35.910646],[139.615145,35.910303],[139.616552,35.907325],[139.613311,35.906406],[139.61323,35.906375],[139.611675,35.908112],[139.610829,35.909482],[139.610316,35.910614]]]},"properties":{"name":"高度地区（20ｍ地区）","hmax":20.0,"notice":"さいたま市1618","date":"2017/11/22"}}]}